*******************************************************************************
JPL/HORIZONS                432 Pythia (A897 YC)           2020-Jun-22 09:00:56
Rec #:     432 (+COV) Soln.date: 2020-May-20_01:05:23   # obs: 2477 (1900-2020)
 
IAU76/J2000 helio. ecliptic osc. elements (au, days, deg., period=Julian yrs):
 
  EPOCH=  2455559.5 ! 2010-Dec-29.00 (TDB)         Residual RMS= .34801
   EC= .1472157307750299   QR= 2.019400238166827   TP= 2454921.8679523272
   OM= 88.81768372379786   W=  174.1131640732202   IN= 12.12978698391307
   A= 2.368008312350911    MA= 172.4643662465903   ADIST= 2.716616386534996
   PER= 3.64404            N= .270476307           ANGMOM= .026182746
   DAN= 2.71415            DDN= 2.02077            L= 263.0613839
   B= 1.2349018            MOID= 1.00353003        TP= 2009-Mar-31.3679523272
 
Asteroid physical parameters (km, seconds, rotational period in hours):
   GM= n.a.                RAD= 23.45              ROTPER= 8.252
   H= 8.9                  G= .150                 B-V= .870
                           ALBEDO= .2338           STYP= S
 
ASTEROID comments: 
1: soln ref.= JPL#78, OCC=0
2: source=ORB
*******************************************************************************
 
 
*******************************************************************************
Ephemeris / WWW_USER Mon Jun 22 09:00:57 2020 Pasadena, USA      / Horizons
*******************************************************************************
Target body name: 432 Pythia (A897 YC)            {source: JPL#78}
Center body name: Solar System Barycenter (0)     {source: DE431}
Center-site name: BODY CENTER
*******************************************************************************
Start time      : A.D. 1969-Jun-28 00:00:00.0000 TDB
Stop  time      : A.D. 2071-May-04 00:00:00.0000 TDB
Step-size       : 7200 minutes
*******************************************************************************
Center geodetic : 0.00000000,0.00000000,0.0000000 {E-lon(deg),Lat(deg),Alt(km)}
Center cylindric: 0.00000000,0.00000000,0.0000000 {E-lon(deg),Dxy(km),Dz(km)}
Center radii    : (undefined)                                                  
Small perturbers: Yes                             {source: SB431-N16}
Output units    : AU-D
Output type     : GEOMETRIC cartesian states
Output format   : 2 (position and velocity)
Reference frame : Ecliptic of J2000.0
*******************************************************************************
Initial IAU76/J2000 heliocentric ecliptic osculating elements (au, days, deg.):
  EPOCH=  2455559.5 ! 2010-Dec-29.00 (TDB)         Residual RMS= .34801        
   EC= .1472157307750299   QR= 2.019400238166827   TP= 2454921.8679523272      
   OM= 88.81768372379786   W=  174.1131640732202   IN= 12.12978698391307       
  Equivalent ICRF heliocentric equatorial cartesian coordinates (au, au/d):
   X= 5.862482494960952E-01  Y= 2.474745341171533E+00  Z= 9.484291299044879E-01
  VX=-9.162378596112589E-03 VY= 1.306909132910048E-03 VZ= 2.723527780636213E-03
Asteroid physical parameters (km, seconds, rotational period in hours):        
   GM= n.a.                RAD= 23.45              ROTPER= 8.252               
   H= 8.9                  G= .150                 B-V= .870                   
                           ALBEDO= .2338           STYP= S                     
*******************************************************************************
            JDTDB,            Calendar Date (TDB),        delta-T,                      X,                      Y,                      Z,                     VX,                     VY,                     VZ,
******************************************************************************************************************************************************************************************************************
$$SOE
2449080.500000000, A.D. 1993-Apr-03 00:00:00.0000,      59.185659, -1.081910546980654E+00,  2.407926849807367E+00,  2.412423138660580E-01, -8.434490036092198E-03, -4.927773381520895E-03,  1.793479172501351E-03,
2449085.500000000, A.D. 1993-Apr-08 00:00:00.0000,      59.185651, -1.123863793312992E+00,  2.382809641988367E+00,  2.501609171810202E-01, -8.346176585331815E-03, -5.118932825557683E-03,  1.773827047430052E-03,
2449090.500000000, A.D. 1993-Apr-13 00:00:00.0000,      59.185631, -1.165365982125859E+00,  2.356739342592301E+00,  2.589792309700126E-01, -8.254064712069194E-03, -5.308999596702035E-03,  1.753362900827746E-03,
2449095.500000000, A.D. 1993-Apr-18 00:00:00.0000,      59.185601, -1.206398086633622E+00,  2.329721572446871E+00,  2.676931882254942E-01, -8.158140562657732E-03, -5.497910462088100E-03,  1.732083976955186E-03,
2449100.500000000, A.D. 1993-Apr-23 00:00:00.0000,      59.185560, -1.246941011055274E+00,  2.301762272304171E+00,  2.762987082329870E-01, -8.058390400460249E-03, -5.685600675513605E-03,  1.709987550504888E-03,
2449105.500000000, A.D. 1993-Apr-28 00:00:00.0000,      59.185508, -1.286975591319993E+00,  2.272867710547225E+00,  2.847916967497074E-01, -7.954800654563483E-03, -5.872003921462773E-03,  1.687070937300305E-03,
2449110.500000000, A.D. 1993-May-03 00:00:00.0000,      59.185443, -1.326482596024062E+00,  2.243044491176902E+00,  2.931680462383537E-01, -7.847357971635421E-03, -6.057052258938531E-03,  1.663331505662939E-03,
2449115.500000000, A.D. 1993-May-08 00:00:00.0000,      59.185366, -1.365442727655230E+00,  2.212299562079973E+00,  3.014236361594625E-01, -7.736049271066545E-03, -6.240676065200532E-03,  1.638766688476262E-03,
2449120.500000000, A.D. 1993-May-13 00:00:00.0000,      59.185281, -1.403836624101371E+00,  2.180640223578455E+00,  3.095543333258865E-01, -7.620861803590442E-03, -6.422803979522904E-03,  1.613373995979003E-03,
2449125.500000000, A.D. 1993-May-18 00:00:00.0000,      59.185187, -1.441644860461556E+00,  2.148074137260002E+00,  3.175559923231673E-01, -7.501783213695272E-03, -6.603362847009332E-03,  1.587151029339322E-03,
2449130.500000000, A.D. 1993-May-23 00:00:00.0000,      59.185086, -1.478847951179555E+00,  2.114609335089558E+00,  3.254244559999158E-01, -7.378801606224964E-03, -6.782277662195677E-03,  1.560095495103181E-03,
2449135.500000000, A.D. 1993-May-28 00:00:00.0000,      59.184977, -1.515426352520559E+00,  2.080254228804304E+00,  3.331555560327637E-01, -7.251905616947179E-03, -6.959471512154397E-03,  1.532205220567183E-03,
2449140.500000000, A.D. 1993-Jun-02 00:00:00.0000,      59.184859, -1.551360465408818E+00,  2.045017619592628E+00,  3.407451135702430E-01, -7.121084486254653E-03, -7.134865520055853E-03,  1.503478169947549E-03,
2449145.500000000, A.D. 1993-Jun-07 00:00:00.0000,      59.184734, -1.586630638642308E+00,  2.008908708050991E+00,  3.481889399592988E-01, -6.986328136552360E-03, -7.308378790544929E-03,  1.473912461281987E-03,
2449150.500000000, A.D. 1993-Jun-12 00:00:00.0000,      59.184605, -1.621217172507156E+00,  1.971937104410353E+00,  3.554828375586190E-01, -6.847627254945790E-03, -7.479928356283691E-03,  1.443506384302384E-03,
2449155.500000000, A.D. 1993-Jun-17 00:00:00.0000,      59.184472, -1.655100322819187E+00,  1.934112839029473E+00,  3.626226006441479E-01, -6.704973381290384E-03, -7.649429124622147E-03,  1.412258419440140E-03,
2449160.500000000, A.D. 1993-Jun-22 00:00:00.0000,      59.184338, -1.688260305417723E+00,  1.895446373153842E+00,  3.696040164123751E-01, -6.558359000981550E-03, -7.816793824806970E-03,  1.380167257917759E-03,
2449165.500000000, A.D. 1993-Jun-27 00:00:00.0000,      59.184200, -1.720677301135093E+00,  1.855948609935630E+00,  3.764228660867126E-01, -6.407777642495614E-03, -7.981932956466070E-03,  1.347231822895599E-03,
2449170.500000000, A.D. 1993-Jul-02 00:00:00.0000,      60.184059, -1.752331461266390E+00,  1.815630905707133E+00,  3.830749261323079E-01, -6.253223980003225E-03, -8.144754739765482E-03,  1.313451291706314E-03,
2449175.500000000, A.D. 1993-Jul-07 00:00:00.0000,      60.183916, -1.783202913565602E+00,  1.774505081498776E+00,  3.895559695848519E-01, -6.094693941348331E-03, -8.305165067468055E-03,  1.278825119228052E-03,
2449180.500000000, A.D. 1993-Jul-12 00:00:00.0000,      60.183776, -1.813271768795529E+00,  1.732583434791582E+00,  3.958617674992043E-01, -5.932184821616301E-03, -8.463067459128908E-03,  1.243353062443947E-03,
2449185.500000000, A.D. 1993-Jul-17 00:00:00.0000,      60.183638, -1.842518127859915E+00,  1.689878751492757E+00,  4.019880905238646E-01, -5.765695402479678E-03, -8.618363017707251E-03,  1.207035206229918E-03,
2449190.500000000, A.D. 1993-Jul-22 00:00:00.0000,      60.183504, -1.870922089547103E+00,  1.646404318121496E+00,  4.079307106075389E-01, -5.595226077493400E-03, -8.770950388920090E-03,  1.169871990408514E-03,
2449195.500000000, A.D. 1993-Jul-27 00:00:00.0000,      60.183372, -1.898463758915380E+00,  1.602173934190428E+00,  4.136854028442080E-01, -5.420778983498496E-03, -8.920725723699938E-03,  1.131864238102861E-03,
2449200.500000000, A.D. 1993-Aug-01 00:00:00.0000,      60.183243, -1.925123256350920E+00,  1.557201924766168E+00,  4.192479474632788E-01, -5.242358138276305E-03, -9.067582644162703E-03,  1.093013185419314E-03,
2449205.500000000, A.D. 1993-Aug-06 00:00:00.0000,      60.183118, -1.950880727329869E+00,  1.511503153190318E+00,  4.246141319715167E-01, -5.059969584578708E-03, -9.211412213546105E-03,  1.053320512479944E-03,
2449210.500000000, A.D. 1993-Aug-11 00:00:00.0000,      60.183001, -1.975716352916831E+00,  1.465093033939757E+00,  4.297797534535475E-01, -4.873621540683914E-03, -9.352102910646630E-03,  1.012788375822510E-03,
2449215.500000000, A.D. 1993-Aug-16 00:00:00.0000,      60.182893, -1.999610361033000E+00,  1.417987545602351E+00,  4.347406210378581E-01, -4.683324557785484E-03, -9.489540609291544E-03,  9.714194422131823E-04,
